[Satellite]
VERSION=1.1
NAME=OAO 3 (COPERNICUS)
NICKNAME=OAO 3 (COPERNICUS)
TLE1=1 06153U 72065A   22342.37196856  .00000297  00000+0  67813-4 0  9999
TLE2=2 06153  35.0050 212.1234 0006903 188.0551 338.2708 14.58194868672685
STATUS=0
